[{"OBJECT_NAME":"KHAYYAM","OBJECT_ID":"2022-096A","EPOCH":"2026-03-09T23:16:46.350624","MEAN_MOTION":15.24771015,"ECCENTRICITY":0.00024081,"INCLINATION":97.351,"RA_OF_ASC_NODE":334.9969,"ARG_OF_PERICENTER":70.558,"MEAN_ANOMALY":289.5917,"EPHEMERIS_TYPE":0,"CLASSIFICATION_TYPE":"U","NORAD_CAT_ID":53370,"ELEMENT_SET_NO":999,"REV_AT_EPOCH":19946,"BSTAR":0.00026923471,"MEAN_MOTION_DOT":6.603e-5,"MEAN_MOTION_DDOT":0},{"OBJECT_NAME":"STARLINK-5228","OBJECT_ID":"2022-141Z","EPOCH":"2026-03-09T22:00:01.999584","MEAN_MOTION":15.24334038,"ECCENTRICITY":0.00015239,"INCLINATION":53.2168,"RA_OF_ASC_NODE":2.2067,"ARG_OF_PERICENTER":88.3857,"MEAN_ANOMALY":310.0088,"EPHEMERIS_TYPE":0,"CLASSIFICATION_TYPE":"U","NORAD_CAT_ID":54180,"ELEMENT_SET_NO":999,"REV_AT_EPOCH":574,"BSTAR":0.0018120877,"MEAN_MOTION_DOT":0.0004484,"MEAN_MOTION_DDOT":0}]
